{"type":"FeatureCollection","features":[{"type":"Feature","id":35,"geometry":{"type":"Polygon","coordinates":[[[9.2975724336024435,45.35263381395184],[9.2974346692013814,45.352536003838907],[9.2974452362973281,45.352513400884],[9.2975405369377455,45.35234759945866],[9.2986545795969846,45.350839698573026],[9.2991530497584129,45.350131048165359],[9.299386609988499,45.349844489543116],[9.2982621057274013,45.349350780653275],[9.2967521474950807,45.348700034587431],[9.2967092123972872,45.348662520375555],[9.296888923410533,45.348293329997304],[9.2968824223441953,45.348224297331427],[9.2969580375635239,45.348188716350251],[9.2975562028134071,45.347484962129059],[9.2976672997809313,45.347412022526349],[9.2977418566354935,45.347398875214552],[9.2989576306530513,45.347398309901457],[9.2990421577656974,45.347399879902085],[9.2992164093958234,45.347107787882209],[9.3000863218000944,45.34593161772257],[9.3001499492237496,45.345841148683519],[9.3002671161525683,45.345773114334939],[9.300405770330185,45.345727598817803],[9.3005656729347361,45.345659451754678],[9.3007681918201612,45.345568625791586],[9.3014291244292355,45.345288452729889],[9.3016105523946617,45.345250357012489],[9.3017174321308289,45.345257599886438],[9.3018775718049529,45.345234601286634],[9.302929770927971,45.345061923411571],[9.3045200915544584,45.344764222428047],[9.3047442108234915,45.344718473743811],[9.3048826164571512,45.344627802509791],[9.3050635145518275,45.344491875686117],[9.3052549337697741,45.344325810827492],[9.3054145433917519,45.344204990646531],[9.3055741118027573,45.344076636191943],[9.3058291037756433,45.343812582220401],[9.3069356137931543,45.342959289264655],[9.3071651200432779,45.342731189268058],[9.3082271993204575,45.343591020866185],[9.308581229205739,45.343851105087779],[9.3094463373110976,45.344492345500051],[9.3105005671147048,45.345281597127268],[9.3108784659194708,45.345523606499597],[9.311201855493108,45.345694571217145],[9.3115310104495386,45.345924892398045],[9.3118349575987285,45.34615528144537],[9.312088056817764,45.346314661712015],[9.3122654022830282,45.346456461816857],[9.3124176230376481,45.346616117094861],[9.3125695510336151,45.346722421789615],[9.3127215774850356,45.346846503735271],[9.3129243330393408,45.347023806681037],[9.3130761649768576,45.347112315231179],[9.3134304741230078,45.347324775206346],[9.3138389401142003,45.347648801386846],[9.3141146506106516,45.347892043838002],[9.3145704432113412,45.348210932441397],[9.3148747107800975,45.348494672588615],[9.3153305124871597,45.348813558100602],[9.3159030264505205,45.34923633696544],[9.3169770226902688,45.350054007853927],[9.317263823439152,45.350312712190295],[9.3179638351166716,45.350787829437245],[9.3186927461840607,45.351289865841458],[9.3188963407087648,45.351455822981094],[9.3208174608473424,45.352827634893906],[9.3212070444170916,45.353146088599836],[9.3216877654993109,45.352649660350465],[9.3220873748970483,45.352202966332321],[9.3224983272833359,45.35178775265689],[9.322864925427087,45.351431162777246],[9.3233893687070371,45.351051621465736],[9.3238995975290653,45.350699131152453],[9.3244720785892987,45.350350953394454],[9.3250224573406602,45.350043341827821],[9.3254838193904419,45.349798990918693],[9.3252772111788147,45.349390025920613],[9.3251180252026256,45.348899904156241],[9.3250715560219017,45.348589497927577],[9.3251326790420119,45.34839579434658],[9.3256230802487021,45.347930826383248],[9.3271920539097177,45.348277387382268],[9.3278356431327332,45.347541938632844],[9.3280948738291389,45.347392671534116],[9.329318602651627,45.345719402785882],[9.3286282555700666,45.345541363502193],[9.328955667761301,45.345319887149195],[9.3293782111461336,45.344994619654514],[9.3296237214667421,45.344683372692344],[9.3319576416722096,45.344339043485846],[9.3309932101246638,45.345858566319187],[9.3323705952772436,45.346192109277567],[9.3310364064042073,45.34970199361247],[9.3317835949456871,45.350041868859009],[9.3325263606382212,45.350440261005559],[9.3340498819614695,45.349558181360834],[9.3334139348981413,45.349141484545477],[9.3342300491218655,45.348450494010315],[9.3350328044089697,45.347930562929228],[9.3353871716440349,45.347681985027201],[9.335480649700143,45.3475691932723],[9.3354702655765216,45.347434203091893],[9.3353560721322566,45.347281514990442],[9.3352085306461063,45.347155937784621],[9.3346879635726019,45.346819912629662],[9.3350350111179292,45.346683874470337],[9.3353454909026343,45.346570446072413],[9.3355328685955481,45.346416872312957],[9.3357698282798136,45.346015614523054],[9.3356180076172581,45.345705522080152],[9.33596443903226,45.346276082299958],[9.3359575653136453,45.346460630817695],[9.335924218868854,45.346757765438028],[9.3359050996348394,45.347032363746102],[9.3359626236317865,45.347315738003687],[9.3361186109361505,45.347517801097233],[9.336324717795824,45.347832242630332],[9.3366203701309622,45.348177915724754],[9.3370050487890275,45.348464825443187],[9.3373626456196881,45.348760806220888],[9.3377188111430307,45.349083803225952],[9.3381247812938053,45.34946065092749],[9.3384635637687641,45.349810692153206],[9.3385591052179677,45.350044444742217],[9.3386863865568497,45.350246598319359],[9.3387946416467713,45.350471302618409],[9.3387699424986934,45.350610897173766],[9.3387181964476245,45.350764073992167],[9.3384985766009265,45.350863740177331],[9.3382008455898138,45.35097713931173],[9.3379127145740917,45.351095009953291],[9.3374776407412288,45.351190810694341],[9.3363749901334074,45.351464113512996],[9.3358668525057684,45.351618632181214],[9.3355141386688274,45.351610667440276],[9.3356379289678486,45.352033368219963],[9.3357384103669432,45.352564144799494],[9.336093498458693,45.352702621733869],[9.3361205622512315,45.352959081146963],[9.336359160947584,45.353097890987698],[9.3364908648171809,45.352971483882079],[9.3368431127851377,45.353168475747012],[9.3371498065182443,45.353487110479236],[9.3372928488009794,45.353657714172158],[9.3372649122983145,45.353788316515015],[9.3367703770720727,45.354086820867444],[9.3370886129712698,45.354198399219072],[9.3374278632499799,45.354354912440911],[9.3376104832099429,45.354471390576286],[9.3376888394527313,45.354498163045442],[9.3370260161113823,45.355211228763245],[9.3374574932323888,45.355579001802163],[9.3375606890094378,45.355488683205571],[9.3376517867405049,45.355510917355758],[9.3374389848654449,45.355687072873579],[9.3374139324835905,45.355768159174907],[9.337501731860069,45.355772400456068],[9.3376146369084587,45.355704556538228],[9.3379651618684569,45.355874536844858],[9.337692144710422,45.356122881900824],[9.3376430205050891,45.356181536000356],[9.3376958986151237,45.356217385134883],[9.3380394680165733,45.356292880434239],[9.3376080379288222,45.356739715008267],[9.3380657356821679,45.356949893283279],[9.3388116226089615,45.356781157937156],[9.3390998483544152,45.356676777910835],[9.3394109394978173,45.35665785117363],[9.33924948842518,45.357679976575284],[9.3389934968794606,45.358904912812889],[9.3388849394253572,45.359701846317598],[9.3387720011224857,45.359765190862184],[9.3386459457056059,45.359770065350297],[9.3375799294805848,45.359521191917736],[9.3363379004400908,45.359196324400834],[9.3359048353773577,45.359103084530808],[9.33579168195112,45.359130421326398],[9.3353824614713901,45.360099260807175],[9.3355461302907354,45.360517343277195],[9.3352191629603638,45.360554308785503],[9.334886349059289,45.361221385525816],[9.3347720425773772,45.361595267913209],[9.3346868476613771,45.36203208335418],[9.3343662443739444,45.362609100076035],[9.334392391119513,45.362712539110554],[9.3345874024498485,45.362761475473171],[9.3358570040840974,45.362879258607876],[9.3352742082093378,45.364190658720254],[9.3352491490497371,45.364271744445389],[9.3348208087398969,45.364173986001681],[9.3345011904089947,45.364107421335611],[9.3344537316975682,45.364179571131736],[9.3348857623926538,45.364902905074203],[9.3348257331284383,45.365006596599088],[9.3344935404696034,45.364976065184123],[9.334192270287307,45.365044457193385],[9.3340774477624162,45.365872908320931],[9.3337935831318539,45.367268938262079],[9.3337796328315097,45.367611021221563],[9.3337646236912466,45.367773089323606],[9.3336806599574835,45.367881350804495],[9.3335049978333728,45.367868361827533],[9.3333193621069945,45.367787900587984],[9.3331894882419491,45.367689264701838],[9.3331107724451012,45.367603981500686],[9.3330444831189716,45.367460153255074],[9.3329268656266091,45.367275968526513],[9.3326530993849772,45.367137254284629],[9.332479246903219,45.367160263848781],[9.3316196120956327,45.367284281094221],[9.3306881448068477,45.367408508859619],[9.3303898788455051,45.367445377396244],[9.3300812244977855,45.367347254967335],[9.3296406246901764,45.367064993951821],[9.3289940441728536,45.366769822685249],[9.3281419161737276,45.366538247886375],[9.3277854243580265,45.366444757335039],[9.3276196827211901,45.366490239600154],[9.3273340982629218,45.366513561764755],[9.327059608951922,45.366523349422749],[9.3267768536998368,45.366483661653859],[9.3264940211160923,45.366430462381359],[9.3262864030820047,45.366413052965825],[9.3261240854115144,45.366499029348574],[9.3259076266260923,45.366607663366246],[9.3257388714106764,45.366684647217227],[9.3256391903856564,45.366837954369387],[9.3255221573187068,45.367027316275596],[9.325309584266062,45.367257456266593],[9.3249507262521707,45.367587026937585],[9.3246262598090244,45.367790470870339],[9.3244621850900185,45.367849445824575],[9.3241605018362357,45.367850302412293],[9.3236334582328269,45.367802298563092],[9.3231302944290935,45.367740713706333],[9.322831420104988,45.367674048737044],[9.3224576656838867,45.367634598446315],[9.3221080208210072,45.367622082984632],[9.321608218393191,45.367591986655555],[9.3211497267137169,45.36752576660647],[9.3207470775634089,45.367454887241813],[9.3205329456049686,45.367414982295166],[9.3201959704855923,45.367384422730062],[9.31984754340648,45.367304395831461],[9.3195773178359449,45.367224140093178],[9.3192957299133674,45.367107910087746],[9.3190098352417969,45.367077204217459],[9.3188594396825479,45.367014614731495],[9.3186882054857563,45.366938581169507],[9.3184597997980525,45.366912214179294],[9.3181323049253599,45.366863619394884],[9.3176670226248657,45.366725402487639],[9.318204284699581,45.366323346988111],[9.3187555001306723,45.365849239197487],[9.3189997140043825,45.365565023886532],[9.3192965725633439,45.365276151208555],[9.3191472733306036,45.364840011957995],[9.3190050057036569,45.364520861412053],[9.3188580652686515,45.364219726420252],[9.3186826113379535,45.363959185870215],[9.3185283755517574,45.363779589043652],[9.3182813909175319,45.363568745756467],[9.3178906219100845,45.36333579880823],[9.317543315448459,45.363165748169408],[9.3170905820482499,45.362982478166721],[9.3165261145558471,45.362795015379618],[9.3159600921038077,45.36261656445437],[9.3154660707961146,45.36246940762026],[9.3151384541752904,45.362393800486856],[9.3147578064971928,45.362255329078174],[9.3143930841152294,45.362107820209808],[9.3140937515582856,45.361951120018482],[9.3137909918932813,45.361753922351959],[9.3135153548428828,45.361552157755149],[9.3131660910746614,45.361314579951113],[9.3128837269565246,45.361049813758214],[9.3131061517155018,45.360864676425855],[9.3135017942612759,45.360544051983936],[9.3138368591299798,45.360237085652756],[9.3140576069139218,45.36003844901056],[9.3141004496121269,45.359993324408656],[9.3120823398341841,45.359283266269266],[9.3101472578778743,45.358568437283793],[9.3100601197841772,45.358685691553688],[9.3099436889864791,45.358699509598821],[9.3096601252139184,45.358502248780653],[9.3091596525458087,45.358040043403911],[9.3085328656666135,45.357533170258392],[9.3080620894313935,45.357246397354515],[9.3076294617083128,45.356928014983858],[9.3072450926406312,45.356681521066562],[9.3068088894262999,45.3565881792806],[9.3065760590564359,45.356620309232433],[9.3064728360882949,45.356715100568032],[9.3063454314291363,45.356764949849868],[9.3061970371146341,45.356769848441125],[9.3060721687902355,45.35669817220716],[9.3058930161041324,45.356622140546826],[9.3053618591355463,45.356380533983057],[9.3051202511613713,45.35626416192148],[9.3040768811475996,45.356928535623162],[9.3039841259517075,45.356892777066157],[9.3037075292378102,45.356799007551317],[9.3034435802944788,45.356682691353804],[9.3032049136075106,45.356521300612378],[9.3030138254190291,45.356301274287176],[9.3028819063723258,45.356103603160278],[9.3028281493093186,45.355901214987043],[9.3028555546653511,45.355653604778325],[9.3029803794117711,45.355419247227147],[9.3031372883834376,45.355216300163349],[9.303275454712308,45.355089914258706],[9.3040933391374843,45.355236253220866],[9.3042881059443037,45.355249236563346],[9.3007824503700736,45.353845334433473],[9.3008618358395356,45.353768613722288],[9.2975724336024435,45.35263381395184]]]},"properties":{"OBJECTID":35,"CLASSREF":"419b7554-c9d8-42c8-8a06-af37f18c7ec0","BELFIORE":"F100","COD_ISTATN":"03015140","NOME_COM":"MELEGNANO","COD_PRO":15,"NOME_PRO":"MILANO","COD_CMO":" ","NOME_CMO":" ","COD_ASL":10,"NOME_ASL":"MILANO 2","COD_REG":"03","NOME_REG":"LOMBARDIA","ANNO":2022,"ISTAT":15140,"SIG_PRO":"MI","LEGGE_ISTITUTIVA":null,"SHAPE_Length":14689.22799613636,"SHAPE_Area":4953277.5791101549,"ATS_COD":"030321","ATS_DEC":"ATS DELLA CITTA' METROPOLITANA DI MILANO","CMETR_COD":"001","CMETR_DEC":"CITTA' METROPOLITANA DI MILANO"}}]}